GLOBALSTAR M094         
1 39074U 13005C   25304.53166440 -.00000089  00000+0  83907-4 0  9993
2 39074  51.9929 126.9871 0000873 108.3945 251.7017 12.62264967589596
GLOBALSTAR M096         
1 39075U 13005D   25304.62401902 -.00000086  00000+0  97846-4 0  9993
2 39075  52.0053 175.3284 0000898  94.8246 265.2724 12.62268403588529
GLOBALSTAR M078         
1 39076U 13005E   25304.59814723 -.00000087  00000+0  95747-4 0  9998
2 39076  51.9870 259.7342 0001278 100.7202 259.3808 12.62261663587144
GLOBALSTAR M095         
1 39077U 13005F   25304.54498657 -.00000099  00000+0  27143-4 0  9996
2 39077  52.0078 257.1742 0000701 104.4921 255.6023 12.62261238586990
GLOBALSTAR M087         
1 52888U 22064A   25304.63702438 -.00000099  00000+0  23970-4 0  9995
2 52888  52.0017  38.2589 0000702 130.4914 229.6014 12.62289593162273
